NORAD_CAT_ID,OBJECT_NAME,OBJECT_TYPE,EPOCH,MEAN_MOTION,ECCENTRICITY,INCLINATION,RA_OF_ASC_NODE,ARG_OF_PERICENTER,MEAN_ANOMALY,BSTAR,MEAN_MOTION_DOT,MEAN_MOTION_DDOT,TLE_LINE0,TLE_LINE1,TLE_LINE2,SEMIMAJOR_AXIS,PERIOD,APOGEE,PERIGEE,DECAYED
51993.0,STARLINK-3648,PAYLOAD,2022-06-10 06:00:02,15.08830886,0.0001828,53.2203,62.2634,55.1135,5.1193,0.0012716,0.00020002,0.0,0 STARLINK-3648,1 51993U 22025AP  22161.25002315  .00020002  00000-0  12716-2 0  9991,2 51993  53.2203  62.2634 0001828  55.1135   5.1193 15.08830886 15581,6917.908,95.438,541.038,538.509,0.0
51993.0,STARLINK-3648,PAYLOAD,2022-06-10 14:00:01,15.0881936,0.0001704,53.2205,60.7654,63.1083,8.6633,0.0030927,0.00049249,0.0,0 STARLINK-3648,1 51993U 22025AP  22161.58334491  .00049249  00000-0  30927-2 0  9998,2 51993  53.2205  60.7654 0001704  63.1083   8.6633 15.08819360  1308,6917.943,95.439,540.987,538.63,0.0
51993.0,STARLINK-3648,PAYLOAD,2022-06-10 22:00:00,15.08860401,0.0001854,53.2197,59.2754,60.6167,22.737,-0.0018146,-0.00029068,0.0,0 STARLINK-3648,1 51993U 22025AP  22161.91667824 -.00029068  00000-0 -18146-2 0  9992,2 51993  53.2197  59.2754 0001854  60.6167  22.7370 15.08860401  1300,6917.818,95.436,540.966,538.4,0.0
51993.0,STARLINK-3648,PAYLOAD,2022-06-11 04:00:00,15.08833114,0.0001888,53.2206,58.1492,56.6662,305.4051,0.0028519,0.00045384,0.0,0 STARLINK-3648,1 51993U 22025AP  22162.16667824  .00045384  00000-0  28519-2 0  9992,2 51993  53.2206  58.1492 0001888  56.6662 305.4051 15.08833114 15729,6917.901,95.438,541.073,538.46,0.0
51993.0,STARLINK-3648,PAYLOAD,2022-06-11 14:00:01,15.08825776,0.0001696999999999,53.2207,56.2768,62.567,44.0255,0.0017199,0.0002718,0.0,0 STARLINK-3648,1 51993U 22025AP  22162.58334491  .00027180  00000-0  17199-2 0  9995,2 51993  53.2207  56.2768 0001697  62.5670  44.0255 15.08825776 15781,6917.924,95.438,540.9630000000002,538.615,0.0
51993.0,STARLINK-3648,PAYLOAD,2022-06-11 22:00:00,15.08853743,0.0001818,53.2209,54.782,59.4197,58.7619,-0.001217,-0.00019612,0.0,0 STARLINK-3648,1 51993U 22025AP  22162.91667824 -.00019612  00000-0 -12170-2 0  9998,2 51993  53.2209  54.7820 0001818  59.4197  58.7619 15.08853743  1303,6917.8380000000025,95.437,540.961,538.446,0.0
51993.0,STARLINK-3648,PAYLOAD,2022-06-12 04:00:00,15.08839303,0.0001827,53.2209,53.6605,54.4573,342.4267,0.00036825,5.577e-05,0.0,0 STARLINK-3648,1 51993U 22025AP  22163.16667824  .00005577  00000-0  36825-3 0  9993,2 51993  53.2209  53.6605 0001827  54.4573 342.4267 15.08839303 15870,6917.8830000000025,95.438,541.011,538.484,0.0
51993.0,STARLINK-3648,PAYLOAD,2022-06-12 14:00:01,15.08809405,0.000165,53.2211,51.7882,60.7811,80.6046,0.0029816,0.00047444,0.0,0 STARLINK-3648,1 51993U 22025AP  22163.58334491  .00047444  00000-0  29816-2 0  9990,2 51993  53.2211  51.7882 0001650  60.7811  80.6046 15.08809405  1307,6917.974,95.439,540.98,538.697,0.0
51993.0,STARLINK-3648,PAYLOAD,2022-06-12 22:00:00,15.08847186,0.00018,53.2214,50.2936,57.7003,95.2649,-0.00086027,-0.00013956,0.0,0 STARLINK-3648,1 51993U 22025AP  22163.91667824 -.00013956  00000-0 -86027-3 0  9997,2 51993  53.2214  50.2936 0001800  57.7003  95.2649 15.08847186  1309,6917.858,95.437,540.969,538.4780000000002,0.0
51993.0,STARLINK-3648,PAYLOAD,2022-06-13 14:00:01,15.08817915,0.0001608,53.2216,47.2997,60.1607,116.0231,0.0031384,0.00049984,0.0,0 STARLINK-3648,1 51993U 22025AP  22164.58334491  .00049984  00000-0  31384-2 0  9995,2 51993  53.2216  47.2997 0001608  60.1607 116.0231 15.08817915 16096,6917.948,95.439,540.925,538.7,0.0
51993.0,STARLINK-3648,PAYLOAD,2022-06-13 22:00:00,15.08867624,0.0001728,53.2217,45.8051,55.8143,131.9591,-0.0026043,-0.00041528,0.0,0 STARLINK-3648,1 51993U 22025AP  22164.91667824 -.00041528  00000-0 -26043-2 0  9995,2 51993  53.2217  45.8051 0001728  55.8143 131.9591 15.08867624  1306,6917.795999999999,95.436,540.856,538.466,0.0
51993.0,STARLINK-3648,PAYLOAD,2022-06-14 14:00:01,15.08799746,0.0001613,53.2217,42.81100000000001,61.7957,149.1843,0.0030321,0.00048245,0.0,0 STARLINK-3648,1 51993U 22025AP  22165.58334491  .00048245  00000-0  30321-2 0  9995,2 51993  53.2217  42.8110 0001613  61.7957 149.1843 15.08799746  1301,6918.003000000002,95.44,540.984,538.753,0.0
51993.0,STARLINK-3648,PAYLOAD,2022-06-14 22:00:00,15.08827434,0.0001778,53.2217,41.3166,57.0694,165.4712,-0.00021015,-3.63e-05,0.0,0 STARLINK-3648,1 51993U 22025AP  22165.91667824 -.00003630  00000-0 -21015-3 0  9993,2 51993  53.2217  41.3166 0001778  57.0694 165.4712 15.08827434 16290,6917.919,95.438,541.014,538.554,0.0
51993.0,STARLINK-3648,PAYLOAD,2022-06-15 14:00:01,15.08839471,0.0001571,53.2216,38.3224,62.988,182.7224,-0.00014965,-2.669e-05,0.0,0 STARLINK-3648,1 51993U 22025AP  22166.58334491 -.00002669  00000-0 -14965-3 0  9995,2 51993  53.2216  38.3224 0001571  62.9880 182.7224 15.08839471  1303,6917.882,95.438,540.8340000000002,538.66,0.0
51993.0,STARLINK-3648,PAYLOAD,2022-06-15 22:00:00,15.08829686,0.0001652,53.2214,36.8279,55.9727,201.3373,0.00019452,2.808e-05,0.0,0 STARLINK-3648,1 51993U 22025AP  22166.91667824  .00002808  00000-0  19452-3 0  9990,2 51993  53.2214  36.8279 0001652  55.9727 201.3373 15.08829686 16447,6917.9119999999975,95.438,540.92,538.634,0.0
51993.0,STARLINK-3648,PAYLOAD,2022-06-16 02:00:01,15.08813191,0.0001657,53.2213,36.0802,53.4135,29.6949,0.0037288,0.00059513,0.0,0 STARLINK-3648,1 51993U 22025AP  22167.08334491  .00059513  00000-0  37288-2 0  9991,2 51993  53.2213  36.0802 0001657  53.4135  29.6949 15.08813191  1304,6917.962,95.439,540.974,538.681,0.0
51993.0,STARLINK-3648,PAYLOAD,2022-06-19 14:00:01,15.08821732,0.0001636999999999,53.2209,20.3671,65.3275,319.4692,0.0021258,0.00033689,0.0,0 STARLINK-3648,1 51993U 22025AP  22170.58334491  .00033689  00000-0  21258-2 0  9996,2 51993  53.2209  20.3671 0001637  65.3275 319.4692 15.08821732  1309,6917.936,95.439,540.934,538.669,0.0
51993.0,STARLINK-3648,PAYLOAD,2022-06-19 22:00:00,15.08829924,0.000179,53.221,18.8727,58.1535,338.2301,0.0011396,0.0001789,0.0,0 STARLINK-3648,1 51993U 22025AP  22170.91667824  .00017890  00000-0  11396-2 0  9990,2 51993  53.2210  18.8727 0001790  58.1535 338.2301 15.08829924  1301,6917.911,95.438,541.014,538.538,0.0
51993.0,STARLINK-3648,PAYLOAD,2022-06-20 14:00:01,15.08821832,0.0001631,53.2189,15.8841,61.4878,358.0728,-0.00012221,-2.231e-05,0.0,0 STARLINK-3648,1 51993U 22025AP  22171.58334491 -.00002231  00000-0 -12221-3 0  9999,2 51993  53.2189  15.8841 0001631  61.4878 358.0728 15.08821832  1304,6917.936,95.439,540.929,538.673,0.0
51993.0,STARLINK-3648,PAYLOAD,2022-06-20 20:00:01,15.08837251,0.000171,53.2214,14.7578,56.6311,281.6179,-0.00034181,-5.723e-05,0.0,0 STARLINK-3648,1 51993U 22025AP  22171.83334491 -.00005723  00000-0 -34181-3 0  9995,2 51993  53.2214  14.7578 0001710  56.6311 281.6179 15.08837251 17180,6917.889,95.438,540.937,538.571,0.0
51993.0,STARLINK-3648,PAYLOAD,2022-06-20 22:00:00,15.08825809,0.0001732,53.2216,14.384,55.6063,15.5428,0.0014393,0.00022684,0.0,0 STARLINK-3648,1 51993U 22025AP  22171.91667824  .00022684  00000-0  14393-2 0  9998,2 51993  53.2216  14.3840 0001732  55.6063  15.5428 15.08825809  1301,6917.924,95.438,540.987,538.591,0.0
51993.0,STARLINK-3648,PAYLOAD,2022-06-21 14:00:01,15.08831203,0.0001519,53.222,11.3899,60.807,33.5344,0.0011394,0.00017888,0.0,0 STARLINK-3648,1 51993U 22025AP  22172.58334491  .00017888  00000-0  11394-2 0  9991,2 51993  53.2220  11.3899 0001519  60.8070  33.5344 15.08831203  1308,6917.906999999997,95.438,540.823,538.721,0.0
51993.0,STARLINK-3648,PAYLOAD,2022-06-21 20:00:01,15.08837773,0.000166,53.2219,10.2693,54.6433,318.3881,-0.0003373,-5.652e-05,0.0,0 STARLINK-3648,1 51993U 22025AP  22172.83334491 -.00005652  00000-0 -33730-3 0  9996,2 51993  53.2219  10.2693 0001660  54.6433 318.3881 15.08837773 17335,6917.887,95.438,540.901,538.604,0.0
51993.0,STARLINK-3648,PAYLOAD,2022-06-21 22:00:00,15.08827357,0.0001681,53.222,9.8955,53.5085,52.4233,0.0011708,0.00018388,0.0,0 STARLINK-3648,1 51993U 22025AP  22172.91667824  .00018388  00000-0  11708-2 0  9992,2 51993  53.2220   9.8955 0001681  53.5085  52.4233 15.08827357  1300,6917.919,95.438,540.947,538.621,0.0
51993.0,STARLINK-3648,PAYLOAD,2022-06-22 14:00:01,15.08831254,0.0001624,53.2223,6.9015,63.4064,65.6946,0.00051808,7.965e-05,0.0,0 STARLINK-3648,1 51993U 22025AP  22173.58334491  .00007965  00000-0  51808-3 0  9992,2 51993  53.2223   6.9015 0001624  63.4064  65.6946 15.08831254  1300,6917.906999999997,95.438,540.896,538.649,0.0
51993.0,STARLINK-3648,PAYLOAD,2022-06-22 22:00:00,15.08816877,0.0001739,53.2221,5.4071,55.8054,84.8861,0.0021701,0.00034396,0.0,0 STARLINK-3648,1 51993U 22025AP  22173.91667824  .00034396  00000-0  21701-2 0  9994,2 51993  53.2221   5.4071 0001739  55.8054  84.8861 15.08816877 17507,6917.951,95.439,541.019,538.613,0.0
51993.0,STARLINK-3648,PAYLOAD,2022-06-23 14:00:01,15.08865203,0.0001575999999999,53.2221,2.4131,64.0088,99.8627,-0.0010754,-0.00017374,0.0,0 STARLINK-3648,1 51993U 22025AP  22174.58334491 -.00017374  00000-0 -10754-2 0  9994,2 51993  53.2221   2.4131 0001576  64.0088  99.8627 15.08865203  1303,6917.803000000001,95.436,540.759,538.578,0.0
51993.0,STARLINK-3648,PAYLOAD,2022-06-23 22:00:00,15.08821937,0.0001631,53.2217,0.9185,54.5981,120.8983,0.0014074,0.00022171,0.0,0 STARLINK-3648,1 51993U 22025AP  22174.91667824  .00022171  00000-0  14074-2 0  9998,2 51993  53.2217   0.9185 0001631  54.5981 120.8983 15.08821937 17659,6917.936,95.439,540.929,538.672,0.0
51993.0,STARLINK-3648,PAYLOAD,2022-06-24 04:00:00,15.08835485,0.000149,53.2203,359.7974,56.1071,38.0552,-0.0017269,-0.00027663,0.0,0 STARLINK-3648,1 51993U 22025AP  22175.16667824 -.00027663  00000-0 -17269-2 0  9998,2 51993  53.2203 359.7974 0001490  56.1071  38.0552 15.08835485 17684,6917.894,95.438,540.79,538.7280000000002,0.0
